NORAD_CAT_ID,OBJECT_NAME,OBJECT_TYPE,EPOCH,MEAN_MOTION,ECCENTRICITY,INCLINATION,RA_OF_ASC_NODE,ARG_OF_PERICENTER,MEAN_ANOMALY,BSTAR,MEAN_MOTION_DOT,MEAN_MOTION_DDOT,TLE_LINE0,TLE_LINE1,TLE_LINE2,SEMIMAJOR_AXIS,PERIOD,APOGEE,PERIGEE,DECAYED
54185.0,STARLINK-5235,PAYLOAD,2023-10-08 09:26:50,15.08839075,0.0001555,53.2183,9.1273,98.9519,261.1649,0.00014906,2.085e-05,0.0,0 STARLINK-5235,1 54185U 22141AE  23281.39364149  .00002085  00000-0  14906-3 0  9996,2 54185  53.2183   9.1273 0001555  98.9519 261.1649 15.08839075 52749,6917.883,95.438,540.824,538.672,0.0
54185.0,STARLINK-5235,PAYLOAD,2023-10-08 12:37:36,15.08843084,0.0001553,53.2183,8.533,89.6999,270.4171,0.00023713,3.488e-05,0.0,0 STARLINK-5235,1 54185U 22141AE  23281.52612101  .00003488  00000-0  23713-3 0  9999,2 54185  53.2183   8.5330 0001553  89.6999 270.4171 15.08843084 52538,6917.871,95.437,540.81,538.662,0.0
54185.0,STARLINK-5235,PAYLOAD,2023-10-08 15:48:22,15.08847887,0.0001461,53.2175,7.9368,88.3924,271.7236,0.00030926,4.638e-05,0.0,0 STARLINK-5235,1 54185U 22141AE  23281.65859914  .00004638  00000-0  30926-3 0  9990,2 54185  53.2175   7.9368 0001461  88.3924 271.7236 15.08847887 52558,6917.856,95.437,540.732,538.711,0.0
54185.0,STARLINK-5235,PAYLOAD,2023-10-09 09:17:37,15.08844956,0.0001538,53.2182,4.6677,99.459,260.6576,0.00018515,2.66e-05,0.0,0 STARLINK-5235,1 54185U 22141AE  23282.38723905  .00002660  00000-0  18515-3 0  9994,2 54185  53.2182   4.6677 0001538  99.4590 260.6576 15.08844956 52895,6917.865,95.437,540.794,538.666,0.0
54185.0,STARLINK-5235,PAYLOAD,2023-10-09 12:28:23,15.08850966,0.0001402,53.218,4.0734,89.5223,270.593,0.0004051,6.167e-05,0.0,0 STARLINK-5235,1 54185U 22141AE  23282.51971755  .00006167  00000-0  40510-3 0  9993,2 54185  53.2180   4.0734 0001402  89.5223 270.5930 15.08850966 52683,6917.847,95.437,540.682,538.742,0.0
54185.0,STARLINK-5235,PAYLOAD,2023-10-10 10:43:47,15.08847969,0.0001388,53.2185,359.913,86.9222,273.1929,0.00017696,2.53e-05,0.0,0 STARLINK-5235,1 54185U 22141AE  23283.44707639  .00002530  00000-0  17696-3 0  9993,2 54185  53.2185 359.9130 0001388  86.9222 273.1929 15.08847969 53051,6917.856,95.437,540.681,538.761,0.0
54185.0,STARLINK-5235,PAYLOAD,2023-10-10 12:19:10,15.08857652,0.0001378,53.2186,359.6141,93.0842,267.0307,0.00033655,5.075e-05,0.0,0 STARLINK-5235,1 54185U 22141AE  23283.51331208  .00005075  00000-0  33655-3 0  9996,2 54185  53.2186 359.6141 0001378  93.0842 267.0307 15.08857652 52834,6917.826,95.436,540.645,538.738,0.0
54185.0,STARLINK-5235,PAYLOAD,2023-10-11 10:34:34,15.08836478,0.0001488,53.2178,355.449,102.9156,257.2003,-6.6405e-05,-1.345e-05,0.0,0 STARLINK-5235,1 54185U 22141AE  23284.44067935 -.00001345  00000-0 -66405-4 0  9990,2 54185  53.2178 355.4490 0001488 102.9156 257.2003 15.08836478 53205,6917.891,95.438,540.786,538.727,0.0
54185.0,STARLINK-5235,PAYLOAD,2023-10-11 12:09:57,15.08838956,0.0001462,53.2181,355.1524,91.3852,268.7307,7.1975e-07,-2.77e-06,0.0,0 STARLINK-5235,1 54185U 22141AE  23284.50691973 -.00000277  00000-0  71975-6 0  9994,2 54185  53.2181 355.1524 0001462  91.3852 268.7307 15.08838956 52981,6917.884,95.438,540.76,538.737,0.0
54185.0,STARLINK-5235,PAYLOAD,2023-10-12 12:00:45,15.08844223,0.0001606,53.2178,350.6938,88.0448,272.0728,0.00021361,3.114e-05,0.0,0 STARLINK-5235,1 54185U 22141AE  23285.50052185  .00003114  00000-0  21361-3 0  9994,2 54185  53.2178 350.6938 0001606  88.0448 272.0728 15.08844223 53137,6917.867,95.437,540.843,538.621,0.0
54185.0,STARLINK-5235,PAYLOAD,2023-10-13 11:51:32,15.08844444,0.0001781,53.2181,346.2326,95.9327,264.1868,0.00033051,4.977e-05,0.0,0 STARLINK-5235,1 54185U 22141AE  23286.49412591  .00004977  00000-0  33051-3 0  9991,2 54185  53.2181 346.2326 0001781  95.9327 264.1868 15.08844444 53514,6917.867,95.437,540.964,538.5,0.0
54185.0,STARLINK-5235,PAYLOAD,2023-10-13 21:23:51,15.08846893,0.0001582,53.2166,344.447,88.638,271.4793,0.00028795,4.299e-05,0.0,0 STARLINK-5235,1 54185U 22141AE  23286.89156476  .00004299  00000-0  28795-3 0  9998,2 54185  53.2166 344.4470 0001582  88.6380 271.4793 15.08846893 53343,6917.859,95.437,540.819,538.63,0.0
54185.0,STARLINK-5235,PAYLOAD,2023-10-14 10:06:55,15.08851581,0.0001686,53.2172,342.0683,91.2355,268.8831,0.0002391,3.52e-05,0.0,0 STARLINK-5235,1 54185U 22141AE  23287.42147960  .00003520  00000-0  23910-3 0  9996,2 54185  53.2172 342.0683 0001686  91.2355 268.8831 15.08851581 53429,6917.845,95.437,540.876,538.544,0.0
54185.0,STARLINK-5235,PAYLOAD,2023-10-14 21:14:38,15.0884288,0.000175,53.2181,339.9883,90.3964,269.7228,0.00012324,1.674e-05,0.0,0 STARLINK-5235,1 54185U 22141AE  23287.88516436  .00001674  00000-0  12324-3 0  9999,2 54185  53.2181 339.9883 0001750  90.3964 269.7228 15.08842880 53493,6917.872,95.437,540.947,538.526,0.0
54185.0,STARLINK-5235,PAYLOAD,2023-10-15 09:57:43,15.08832231,0.0001727,53.2179,337.6082,101.1972,258.9215,-0.00011107,-2.055e-05,0.0,0 STARLINK-5235,1 54185U 22141AE  23288.41509215 -.00002055  00000-0 -11107-3 0  9990,2 54185  53.2179 337.6082 0001727 101.1972 258.9215 15.08832231 53800,6917.904,95.438,540.964,538.574,0.0
54185.0,STARLINK-5235,PAYLOAD,2023-10-15 13:08:30,15.08833183,0.0001827,53.2181,337.0129,102.9416,257.178,-5.5329e-05,-1.168e-05,0.0,0 STARLINK-5235,1 54185U 22141AE  23288.54757263 -.00001168  00000-0 -55329-4 0  9991,2 54185  53.2181 337.0129 0001827 102.9416 257.1780 15.08833183 53593,6917.901,95.438,541.03,538.502,0.0
54185.0,STARLINK-5235,PAYLOAD,2023-10-16 06:37:44,15.08842116,0.0001664,53.2168,333.7422,100.5975,259.5205,0.00015293,2.147e-05,0.0,0 STARLINK-5235,1 54185U 22141AE  23289.27621001  .00002147  00000-0  15293-3 0  9993,2 54185  53.2168 333.7422 0001664 100.5975 259.5205 15.08842116 53932,6917.874,95.437,540.89,538.588,0.0
54185.0,STARLINK-5235,PAYLOAD,2023-10-16 12:59:16,15.08853094,0.0001551,53.2169,332.5526,95.0826,265.0343,0.00044482,6.801e-05,0.0,0 STARLINK-5235,1 54185U 22141AE  23289.54116752  .00006801  00000-0  44482-3 0  9998,2 54185  53.2169 332.5526 0001551  95.0826 265.0343 15.08853094 53744,6917.84,95.437,540.778,538.632,0.0
54185.0,STARLINK-5235,PAYLOAD,2023-10-17 09:39:17,15.08850798,0.000146,53.2171,328.6877,96.8144,263.3014,0.00040198,6.117e-05,0.0,0 STARLINK-5235,1 54185U 22141AE  23290.40229018  .00006117  00000-0  40198-3 0  9995,2 54185  53.2171 328.6877 0001460  96.8144 263.3014 15.08850798 54108,6917.847,95.437,540.722,538.702,0.0
54185.0,STARLINK-5235,PAYLOAD,2023-10-18 03:08:32,15.08840184,0.000156,53.2179,325.4182,98.395,261.7219,-3.1056e-05,-7.82e-06,0.0,0 STARLINK-5235,1 54185U 22141AE  23291.13093146 -.00000782  00000-0 -31056-4 0  9995,2 54185  53.2179 325.4182 0001560  98.3950 261.7219 15.08840184 53985,6917.88,95.438,540.824,538.666,0.0
54185.0,STARLINK-5235,PAYLOAD,2023-10-18 09:30:04,15.08845209,0.0001548,53.2172,324.2273,88.6862,271.4308,6.874e-05,8.06e-06,0.0,0 STARLINK-5235,1 54185U 22141AE  23291.39588894  .00000806  00000-0  68740-4 0  9997,2 54185  53.2172 324.2273 0001548  88.6862 271.4308 15.08845209 54257,6917.864,95.437,540.8,538.659,0.0
54185.0,STARLINK-5235,PAYLOAD,2023-10-19 09:20:51,15.08853675,0.0001498,53.2169,319.7674,89.4344,270.682,0.00034153,5.154e-05,0.0,0 STARLINK-5235,1 54185U 22141AE  23292.38948734  .00005154  00000-0  34153-3 0  9991,2 54185  53.2169 319.7674 0001498  89.4344 270.6820 15.08853675 54172,6917.839,95.437,540.74,538.667,0.0
54185.0,STARLINK-5235,PAYLOAD,2023-10-19 18:53:10,15.08850862,0.0001646,53.2171,317.9824,78.9099,281.2078,0.00035016,5.291e-05,0.0,0 STARLINK-5235,1 54185U 22141AE  23292.78692816  .00005291  00000-0  35016-3 0  9993,2 54185  53.2171 317.9824 0001646  78.9099 281.2078 15.08850862 54467,6917.847,95.437,540.851,538.574,0.0
54185.0,STARLINK-5235,PAYLOAD,2023-10-20 10:47:02,15.08839341,0.0001663,53.2172,315.0091,79.8059,280.3121,5.6684e-05,6.14e-06,0.0,0 STARLINK-5235,1 54185U 22141AE  23293.44933246  .00000614  00000-0  56684-4 0  9991,2 54185  53.2172 315.0091 0001663  79.8059 280.3121 15.08839341 54567,6917.882,95.438,540.898,538.597,0.0
54185.0,STARLINK-5235,PAYLOAD,2023-10-21 10:37:49,15.08845258,0.0001629,53.2171,310.5471,92.1319,267.986,0.00020966,3.051e-05,0.0,0 STARLINK-5235,1 54185U 22141AE  23294.44293351  .00003051  00000-0  20966-3 0  9999,2 54185  53.2171 310.5471 0001629  92.1319 267.9860 15.08845258 54483,6917.864,95.437,540.856,538.602,0.0
54185.0,STARLINK-5235,PAYLOAD,2023-10-21 18:34:45,15.08840258,0.0001747,53.2172,309.0608,87.0883,273.0309,0.00016218,2.294e-05,0.0,0 STARLINK-5235,1 54185U 22141AE  23294.77413639  .00002294  00000-0  16218-3 0  9991,2 54185  53.2172 309.0608 0001747  87.0883 273.0309 15.08840258 54761,6917.88,95.438,540.953,538.536,0.0
54185.0,STARLINK-5235,PAYLOAD,2023-10-22 10:28:36,15.08849505,0.0001636,53.2174,306.0847,93.4202,266.6977,0.00026031,3.858e-05,0.0,0 STARLINK-5235,1 54185U 22141AE  23295.43653189  .00003858  00000-0  26031-3 0  9992,2 54185  53.2174 306.0847 0001636  93.4202 266.6977 15.08849505 54637,6917.851,95.437,540.848,538.585,0.0
54185.0,STARLINK-5235,PAYLOAD,2023-10-22 18:25:33,15.08830042,0.00018,53.2177,304.6017,90.4425,269.6773,1.0057e-05,-1.28e-06,0.0,0 STARLINK-5235,1 54185U 22141AE  23295.76774366 -.00000128  00000-0  10057-4 0  9999,2 54185  53.2177 304.6017 0001800  90.4425 269.6773 15.08830042 54914,6917.911,95.438,541.021,538.531,0.0
54185.0,STARLINK-5235,PAYLOAD,2023-10-23 07:08:38,15.08835601,0.0001524,53.2174,302.2206,97.5606,262.556,-2.1913e-07,-2.91e-06,0.0,0 STARLINK-5235,1 54185U 22141AE  23296.29766211 -.00000291  00000-0 -21913-6 0  9995,2 54185  53.2174 302.2206 0001524  97.5606 262.5560 15.08835601 54762,6917.894,95.438,540.813,538.705,0.0
54185.0,STARLINK-5235,PAYLOAD,2023-10-24 03:48:38,15.088433,0.0001528,53.2165,298.355,100.0955,260.021,0.00014609,2.038e-05,0.0,0 STARLINK-5235,1 54185U 22141AE  23297.15878075  .00002038  00000-0  14609-3 0  9993,2 54185  53.2165 298.3550 0001528 100.0955 260.0210 15.08843300 55121,6917.87,95.437,540.792,538.678,0.0
